{"type":"FeatureCollection","geocoding":{"creation_date":"2017-12-14","generator":{"author":{"name":"Mapzen"},"package":"fences-builder","version":"0.1.2"},"license":"ODbL (see http://www.openstreetmap.org/copyright)"},"features":[{"id":121511793,"osm_type":"way","type":"Feature","name":"Бугарија","properties":{"fax":"+389 2 3246493","name":"Бугарија","email":"Embassy.Skopje@mfa.bg","phone":"+389 2 3229444","amenity":"embassy","country":"BG","name:en":"Embassy of Bulgaria","boundary":"administrative","building":"office","addr:city":"Cкoпje","diplomatic":"embassy","addr:street":"Златко Шнајдер","admin_level":"0","addr:city:en":"Skopje","addr:country":"MK","addr:postcode":"1000","opening_hours":"Mo-Fr 10:00-12:00","addr:housename":"3","addr:street:en":"Zlatko Shnajder"},"geometry":{"type":"MultiPolygon","coordinates":[[[[21.4199871,41.9950292],[21.4197607,41.995016],[21.4197902,41.9947356],[21.4199041,41.9947422],[21.4200166,41.9947488],[21.4199871,41.9950292]]]]}}
,
{"id":121511807,"osm_type":"way","type":"Feature","name":"Црна Гора","properties":{"fax":"+389 2 3227254","name":"Црна Гора","email":"macedonia@mfa.gov.me","phone":"+389 2 3227277","amenity":"embassy","country":"ME","name:en":"Embassy of Montenegro","name:me":"Црна Гора","boundary":"administrative","building":"office","addr:city":"Cкoпje","diplomatic":"embassy","addr:street":"Васил Стефановски","admin_level":"0","addr:city:en":"Skopje","addr:country":"MK","addr:postcode":"1000","addr:street:en":"Vasil Stefanovski","addr:housenumber":"7"},"geometry":{"type":"MultiPolygon","coordinates":[[[[21.4173023,41.9958014],[21.4170916,41.9957458],[21.4171434,41.9956373],[21.4173541,41.9956929],[21.4173023,41.9958014]]]]}}
,
{"id":122886481,"osm_type":"way","type":"Feature","name":"Романија","properties":{"fax":"+389 2 3228036","name":"Романија","email":"romanamb@cabletel.net.mk","phone":"+389 2 3228057","amenity":"embassy","country":"RO","name:de":"Rumänische Botschaft","name:en":"Embassy of Romania","boundary":"administrative","building":"office","int_name":"Romania","addr:city":"Cкoпje","diplomatic":"embassy","addr:street":"Рајко Жинзифов","admin_level":"0","addr:city:en":"Skopje","addr:country":"MK","addr:postcode":"1000","opening_hours":"Mo-Fr 09:00-12:00","addr:street:en":"Rajko Zinzifov","addr:housenumber":"42"},"geometry":{"type":"MultiPolygon","coordinates":[[[[21.4185994,41.9976851],[21.4184281,41.9976712],[21.4184503,41.9975213],[21.4186215,41.9975353],[21.4185994,41.9976851]]]]}}
,
{"id":164191656,"osm_type":"way","type":"Feature","name":"Италија","properties":{"fax":"+389 2 3236505","name":"Италија","email":"segreteria.skopje@esteri.it","phone":"+389 2 3236500","amenity":"embassy","country":"IT","name:en":"Italian Embassy","name:it":"Ambasciata d'Italia","name:lt":"Italija","website":"http://www.ambskopje.esteri.it","boundary":"administrative","building":"office","addr:city":"Cкoпje","diplomatic":"embassy","wheelchair":"no","addr:street":"8-ма Ударна Бригада","admin_level":"0","addr:city:en":"Skopje","addr:country":"MK","addr:postcode":"1000","opening_hours":"Tu-Fr 09:00-12:00","addr:street:en":"8 Udarna Brigada","addr:housenumber":"22"},"geometry":{"type":"MultiPolygon","coordinates":[[[[21.4286168,41.9953668],[21.4283423,41.9954136],[21.4283879,41.9955612],[21.4286624,41.9955144],[21.4286168,41.9953668]]]]}}
,
{"id":175035453,"osm_type":"way","type":"Feature","name":"Русија","properties":{"fax":"+389 2 3117808","name":"Русија","email":"embassy@russia.org.mk","phone":"+389 2 3117160","target":"MK","amenity":"embassy","country":"RU","name:en":"Russian Federation Embassy","name:ru":"Посольство Российской Федерации","website":"http://www.russia.org.mk","boundary":"administrative","building":"office","addr:city":"Cкoпje","diplomatic":"embassy","addr:street":"Пиринска","admin_level":"0","addr:city:en":"Skopje","addr:country":"MK","addr:postcode":"1000","opening_hours":"Tu,Th,Fr 09:00-12:00","addr:street:en":"Pirinska","addr:housenumber":"44"},"geometry":{"type":"MultiPolygon","coordinates":[[[[21.4243425,41.9995816],[21.4241836,41.9996865],[21.4243147,41.9997962],[21.4244736,41.9996913],[21.4243425,41.9995816]]]]}}
,
{"id":176173908,"osm_type":"way","type":"Feature","name":"Србија","properties":{"name":"Србија","target":"MK","amenity":"embassy","country":"RS","name:en":"Embassy of The Republic of Serbia","boundary":"administrative","addr:city":"Cкoпje","diplomatic":"embassy","addr:street":"Питу Гули","admin_level":"0","addr:city:en":"Skopje","addr:country":"MK","addr:postcode":"1000","addr:housenumber":"8"},"geometry":{"type":"MultiPolygon","coordinates":[[[[21.4142922,41.9884397],[21.4138261,41.9886117],[21.4141426,41.9888509],[21.4144939,41.9885718],[21.4142922,41.9884397]]]]}}
,
{"id":189975223,"osm_type":"way","type":"Feature","name":"Шпанија амбасада","properties":{"fax":"+389 2 3215612","name":"Шпанија амбасада","email":"emb.skopje@maec.es","phone":"+389 2 3203865","amenity":"embassy","country":"ES","name:en":"Embassy of the Kingdom of Spain","name:es":"Reino de España","boundary":"administrative","building":"office","addr:city":"Cкoпje","diplomatic":"embassy","addr:street":"27 Март","admin_level":"0","addr:city:en":"Skopje","addr:country":"MK","addr:postcode":"1000","opening_hours":"Mo-Fr 09:00-14:00","addr:street:en":"27 March","addr:housenumber":"7"},"geometry":{"type":"MultiPolygon","coordinates":[[[[21.4290878,41.9967392],[21.4289997,41.9967496],[21.429002,41.9967911],[21.4289296,41.996801],[21.4289671,41.9968828],[21.4289905,41.9968915],[21.4290807,41.9969251],[21.4291575,41.9967971],[21.4290878,41.9967392]]]]}}
,
{"id":223287694,"osm_type":"way","type":"Feature","name":"Грција","properties":{"fax":"+389 2 3115718","name":"Грција","email":"grskopje@mfa.gr","phone":"+389 2 3219260","target":"MK","amenity":"embassy","barrier":"fence","country":"GR","name:el":"Ελλάδα","name:en":"Liaison Office of the Hellenic Republic","name:gr":"Γραφείο Συνδέσμου Σκοπίων","boundary":"administrative","diplomatic":"embassy","fence_type":"metal","admin_level":"0","surveillance":"outdoor","opening_hours":"Mo-Fr 09:00-13:00","surveillance:type":"camera","surveillance:zone":"building"},"geometry":{"type":"MultiPolygon","coordinates":[[[[21.4236709,41.9977834],[21.4234224,41.9979828],[21.423108,41.9977949],[21.4231142,41.9975053],[21.4232954,41.9975057],[21.4239123,41.997489],[21.4236709,41.9977834]]]]}}
,
{"id":342462529,"osm_type":"way","type":"Feature","name":"Хрватска","properties":{"fax":"+389 2 3246004","name":"Хрватска","email":"croemb.skopje@mvep.hr","phone":"+389 2 3248170","amenity":"embassy","country":"HR","name:en":"Embassy of Croatia","name:hr":"Veleposlanstvo Republike Hrvatske u Rebublici Makedoniji","website":"http://mk.mvep.hr/","boundary":"administrative","building":"office","addr:city":"Cкoпje","diplomatic":"embassy","addr:street":"Букурешка","admin_level":"0","addr:city:en":"Skopje","addr:country":"MK","addr:postcode":"1000","opening_hours":"Mo-Fr 08:30-16:30","addr:street:en":"Bukureshka","addr:housenumber":"91"},"geometry":{"type":"MultiPolygon","coordinates":[[[[21.3971751,41.999616],[21.3970448,41.9996395],[21.3970803,41.999748],[21.3972106,41.9997245],[21.3971751,41.999616]]]]}}]}